{
"type": "FeatureCollection",
"name": "DB-Equipements",
"crs": { "type": "name", "properties": { "name": "urn:ogc:def:crs:EPSG::26191" } },
"features": [
{"type":"Feature","properties":{"ID":1,"N° dossie":"50524/2026","MOA":"Sté California Nord S.A.R.L","MOE":"Belarbi Anass","Consistanc":"Lotissement  Aya : lots Villas et R+2","Référenc":"T1093/Z","Situation":"Pté dite Henri et Renée","Equipement":"Equipement 1 A Ceder"},"geometry":{"type":"Point","coordinates":[214840.127450588770444,297972.506106534914579]}},
{"type":"Feature","properties":{"ID":1,"N° dossie":"50524/2026","MOA":"Sté California Nord S.A.R.L","MOE":"Belarbi Anass","Consistanc":"Lotissement  Aya : lots Villas et R+2","Référenc":"T1093/Z","Situation":"Pté dite Henri et Renée","Equipement":"Equipement 5 A Ceder"},"geometry":{"type":"Point","coordinates":[214723.717232482304098,297914.300997481681406]}},
{"type":"Feature","properties":{"ID":1,"N° dossie":"50524/2026","MOA":"Sté California Nord S.A.R.L","MOE":"Belarbi Anass","Consistanc":"Lotissement  Aya : lots Villas et R+2","Référenc":"T1093/Z","Situation":"Pté dite Henri et Renée","Equipement":"Equipement 3 A Ceder"},"geometry":{"type":"Point","coordinates":[214771.918338417017367,297927.942819916002918]}},
{"type":"Feature","properties":{"ID":1,"N° dossie":"50524/2026","MOA":"Sté California Nord S.A.R.L","MOE":"Belarbi Anass","Consistanc":"Lotissement  Aya : lots Villas et R+2","Référenc":"T1093/Z","Situation":"Pté dite Henri et Renée","Equipement":"Equipement 2 A Ceder"},"geometry":{"type":"Point","coordinates":[214787.379070509283338,297905.206449192075524]}},
{"type":"Feature","properties":{"ID":1,"N° dossie":"50524/2026","MOA":"Sté California Nord S.A.R.L","MOE":"Belarbi Anass","Consistanc":"Lotissement  Aya : lots Villas et R+2","Référenc":"T1093/Z","Situation":"Pté dite Henri et Renée","Equipement":"Equipement 4 A Ceder"},"geometry":{"type":"Point","coordinates":[214763.733244956412818,297897.93081056047231]}},
{"type":"Feature","properties":{"ID":1,"N° dossie":"50524/2026","MOA":"Sté California Nord S.A.R.L","MOE":"Belarbi Anass","Consistanc":"Lotissement  Aya : lots Villas et R+2","Référenc":"T1093/Z","Situation":"Pté dite Henri et Renée","Equipement":"Equipement 6 A Ceder"},"geometry":{"type":"Point","coordinates":[214921.978385194874136,297500.499050306214485]}},
{"type":"Feature","properties":{"ID":2,"N° dossie":"47907/2026","MOA":"Sté Terra Sidi Rahal S.A.R.L","MOE":"Belarbi Anass","Consistanc":"Lotissement en villa","Référenc":"TF 34921/J","Situation":"Pté dite ‘ Amrouche 1’","Equipement":"Equipement 1\n"},"geometry":{"type":"Point","coordinates":[213318.609521744132508,297832.450062875344884]}},
{"type":"Feature","properties":{"ID":2,"N° dossie":"47907/2026","MOA":"Sté Terra Sidi Rahal S.A.R.L","MOE":"Belarbi Anass","Consistanc":"Lotissement en villa","Référenc":"TF 34921/J","Situation":"Pté dite ‘ Amrouche 1’","Equipement":"Equipement 2\n"},"geometry":{"type":"Point","coordinates":[213286.323875316156773,297824.719696829211898]}},
{"type":"Feature","properties":{"ID":4,"N° dossie":"4234/2026 ","MOA":"Sté Vive Bâtiment S.A.R.L.A.U  et Sté Binaa Binaa Al Mahaba S.A.R.L","MOE":"Belarbi Anass","Consistanc":"Lotissement« Al Azhar » Sidi Moussa en R+2","Référenc":"TF  5610/Z","Situation":"Quartier « Sidi Moussa »","Equipement":"Parcelle \"2\"\nEquipement"},"geometry":{"type":"Point","coordinates":[212178.450921100447886,297108.129210016631987]}},
{"type":"Feature","properties":{"ID":4,"N° dossie":"4234/2026 ","MOA":"Sté Vive Bâtiment S.A.R.L.A.U  et Sté Binaa Binaa Al Mahaba S.A.R.L","MOE":"Belarbi Anass","Consistanc":"Lotissement« Al Azhar » Sidi Moussa en R+2","Référenc":"TF  5610/Z","Situation":"Quartier « Sidi Moussa »","Equipement":"Parcelle \"1\"\nEquipement"},"geometry":{"type":"Point","coordinates":[212150.586378088395577,297084.84997155086603]}},
{"type":"Feature","properties":{"ID":4,"N° dossie":"4234/2026 ","MOA":"Sté Vive Bâtiment S.A.R.L.A.U  et Sté Binaa Binaa Al Mahaba S.A.R.L","MOE":"Belarbi Anass","Consistanc":"Lotissement« Al Azhar » Sidi Moussa en R+2","Référenc":"TF  5610/Z","Situation":"Quartier « Sidi Moussa »","Equipement":"Equipement 3\nA cédér"},"geometry":{"type":"Point","coordinates":[212148.117367948085302,297059.630796546291094]}},
{"type":"Feature","properties":{"ID":5,"N° dossie":"126021/2025","MOA":"Sté  Action Invest S.A.R.L","MOE":"Belarbi Anass","Consistanc":"Lotissement en R+2 et R+5","Référenc":"TF 202503/08; TF 217574/08","Situation":"Avenue P","Equipement":"Equipement Polyvalent D'animation de Commerce et de Service R+2"},"geometry":{"type":"Point","coordinates":[210202.008303784008604,295821.422211181663442]}},
{"type":"Feature","properties":{"ID":7,"N° dossie":"125734/2025","MOA":"Sté Home Développement","MOE":"Belarbi Anass","Consistanc":"Lotissement en R+2","Référenc":"TF  66718/08","Situation":"Rue n°19","Equipement":"Equipement Mosquée"},"geometry":{"type":"Point","coordinates":[210685.934291284356732,295821.42221118172165]}},
{"type":"Feature","properties":{"ID":7,"N° dossie":"125734/2025","MOA":"Sté Home Développement","MOE":"Belarbi Anass","Consistanc":"Lotissement en R+2","Référenc":"TF  66718/08","Situation":"Rue n°19","Equipement":"Equipement Parking"},"geometry":{"type":"Point","coordinates":[210687.345154221664416,295846.112312584824394]}},
{"type":"Feature","properties":{"ID":8,"N° dossie":"11384/2026","MOA":"Sté Motassim Invest S.A.R.L","MOE":"Tibary Chouaib","Consistanc":"Lotissement en R+2 et Villas","Référenc":"TF 106756/08","Situation":"RP 3408 et rue n°357","Equipement":"Equipement A Ceder Gratuitement"},"geometry":{"type":"Point","coordinates":[213562.860178344330052,297034.235263674287125]}},
{"type":"Feature","properties":{"ID":9,"N° dossie":"46920/2026","MOA":"Sté Dinh S.A.R.L","MOE":"Belarbi Anass","Consistanc":"Lotissement en R+2","Référenc":"TF 132574/08","Situation":"Pté dite \"Ard Essania\"","Equipement":"Equipement sportive privé"},"geometry":{"type":"Point","coordinates":[208117.811029629665427,298668.896334425313398]}},
{"type":"Feature","properties":{"ID":10,"N° dossie":"55448/2026","MOA":"Sté Al Binaa Al Badil S.A.R.L","MOE":"Belarbi Anass","Consistanc":"Lotissement de villas et construction d’un groupement d’habitation en R+2","Référenc":"TF 127938/08","Situation":"Pté  dite: \"Ard  Feddane\"  Avenue Jabrane Khalil Jabrane","Equipement":"Equipement de santé(centre de santé) :S26 à céder sans droit à l’indemnisation (suite l’article 5.2 du règlement d’aménagement)"},"geometry":{"type":"Point","coordinates":[207485.744433710846351,298179.326895175734535]}},
{"type":"Feature","properties":{"ID":10,"N° dossie":"55448/2026","MOA":"Sté Al Binaa Al Badil S.A.R.L","MOE":"Belarbi Anass","Consistanc":"Lotissement de villas et construction d’un groupement d’habitation en R+2","Référenc":"TF 127938/08","Situation":"Pté  dite: \"Ard  Feddane\"  Avenue Jabrane Khalil Jabrane","Equipement":"Administration au RDC, à construire et à céder sans droit à l’indemnisation (suite l’article 5.2 du règlement d’aménagement)"},"geometry":{"type":"Point","coordinates":[207418.023012719524559,298309.126285409089178]}},
{"type":"Feature","properties":{"ID":11,"N° dossie":"39387/2026","MOA":"Sté Soukaina Gestion S.A.R.L","MOE":"Belarbi Anass","Consistanc":"lotissement en R+2 et R+3","Référenc":"TF 72926/08","Situation":"Douar Elgharbia","Equipement":"Equipement 3 Sera cédés\nsans droit à l’indemnisation\n(article 5.2)"},"geometry":{"type":"Point","coordinates":[212432.053534083475824,295739.768518684548326]}},
{"type":"Feature","properties":{"ID":11,"N° dossie":"39387/2026","MOA":"Sté Soukaina Gestion S.A.R.L","MOE":"Belarbi Anass","Consistanc":"lotissement en R+2 et R+3","Référenc":"TF 72926/08","Situation":"Douar Elgharbia","Equipement":"Equipement 4 Sera cédés\nsans droit à l’indemnisation\n(article 5.2)"},"geometry":{"type":"Point","coordinates":[212414.41774736699881,295745.411970433837269]}},
{"type":"Feature","properties":{"ID":13,"N° dossie":"72278/2026","MOA":"Sté Immo Drome S.A.R.L","MOE":"Belarbi Anass","Consistanc":"Lotissement de villas et R+2","Référenc":"TF 2084/C; TF 113494/08; TF 7809/C","Situation":"Douar \"Gharbia\"","Equipement":"Equipement\nPolyvalent 1"},"geometry":{"type":"Point","coordinates":[214671.878307231789222,298007.065390035160817]}},
{"type":"Feature","properties":{"ID":13,"N° dossie":"72278/2026","MOA":"Sté Immo Drome S.A.R.L","MOE":"Belarbi Anass","Consistanc":"Lotissement de villas et R+2","Référenc":"TF 2084/C; TF 113494/08; TF 7809/C","Situation":"Douar \"Gharbia\"","Equipement":"Equipement\nPolyvalent 3"},"geometry":{"type":"Point","coordinates":[214576.385550191305811,297953.407555126701482]}},
{"type":"Feature","properties":{"ID":13,"N° dossie":"72278/2026","MOA":"Sté Immo Drome S.A.R.L","MOE":"Belarbi Anass","Consistanc":"Lotissement de villas et R+2","Référenc":"TF 2084/C; TF 113494/08; TF 7809/C","Situation":"Douar \"Gharbia\"","Equipement":"Equipement\nPolyvalent 2"},"geometry":{"type":"Point","coordinates":[214714.622684192756424,297976.143925850628875]}},
{"type":"Feature","properties":{"ID":12,"N° dossie":"36187/2026","MOA":"Groupe OCP S.A","MOE":"Anba Youssef","Consistanc":"Réalisation d'un lotissement \"Opération Phosphore El Fath 3\"","Référenc":"TF 59499/08; TF 62414/08; TF 115533/08; TF 115534/08; TF 116138/08; TF 116889/08; TF 117884/08; TF 126167/08; TF 208601/08; TF 209095/08; TF 230839/08; TF 230840/08","Situation":"Angle avenue \"Jabrane Khalil Jabrane\" et l'avenue \"R\"","Equipement":"Equipement"},"geometry":{"type":"Point","coordinates":[210352.265206608368317,296017.532159468915779]}},
{"type":"Feature","properties":{"ID":12,"N° dossie":"36187/2026","MOA":"Groupe OCP S.A","MOE":"Anba Youssef","Consistanc":"Réalisation d'un lotissement \"Opération Phosphore El Fath 3\"","Référenc":"TF 59499/08; TF 62414/08; TF 115533/08; TF 115534/08; TF 116138/08; TF 116889/08; TF 117884/08; TF 126167/08; TF 208601/08; TF 209095/08; TF 230839/08; TF 230840/08","Situation":"Angle avenue \"Jabrane Khalil Jabrane\" et l'avenue \"R\"","Equipement":"Equipepment"},"geometry":{"type":"Point","coordinates":[210451.025612220691983,296022.470179749536328]}},
{"type":"Feature","properties":{"ID":12,"N° dossie":"36187/2026","MOA":"Groupe OCP S.A","MOE":"Anba Youssef","Consistanc":"Réalisation d'un lotissement \"Opération Phosphore El Fath 3\"","Référenc":"TF 59499/08; TF 62414/08; TF 115533/08; TF 115534/08; TF 116138/08; TF 116889/08; TF 117884/08; TF 126167/08; TF 208601/08; TF 209095/08; TF 230839/08; TF 230840/08","Situation":"Angle avenue \"Jabrane Khalil Jabrane\" et l'avenue \"R\"","Equipement":"Equipement"},"geometry":{"type":"Point","coordinates":[210055.631274037150433,295890.20177937601693]}},
{"type":"Feature","properties":{"ID":12,"N° dossie":"36187/2026","MOA":"Groupe OCP S.A","MOE":"Anba Youssef","Consistanc":"Réalisation d'un lotissement \"Opération Phosphore El Fath 3\"","Référenc":"TF 59499/08; TF 62414/08; TF 115533/08; TF 115534/08; TF 116138/08; TF 116889/08; TF 117884/08; TF 126167/08; TF 208601/08; TF 209095/08; TF 230839/08; TF 230840/08","Situation":"Angle avenue \"Jabrane Khalil Jabrane\" et l'avenue \"R\"","Equipement":"Equipement"},"geometry":{"type":"Point","coordinates":[210052.80954816241865,296373.422335407754872]}},
{"type":"Feature","properties":{"ID":12,"N° dossie":"36187/2026","MOA":"Groupe OCP S.A","MOE":"Anba Youssef","Consistanc":"Réalisation d'un lotissement \"Opération Phosphore El Fath 3\"","Référenc":"TF 59499/08; TF 62414/08; TF 115533/08; TF 115534/08; TF 116138/08; TF 116889/08; TF 117884/08; TF 126167/08; TF 208601/08; TF 209095/08; TF 230839/08; TF 230840/08","Situation":"Angle avenue \"Jabrane Khalil Jabrane\" et l'avenue \"R\"","Equipement":"Equipement"},"geometry":{"type":"Point","coordinates":[210087.375690126675181,295960.744926241866779]}},
{"type":"Feature","properties":{"ID":3,"N° dossie":"21115/2026","MOA":"Sté Vive Bâtiment S.A.R.L.A.U","MOE":"Belarbi Anass","Consistanc":"Lotissement Antalya en R+3","Référenc":"TF 251792/08; TF 64698/08; TF 232155/08; TF 64696/08; TF 67801/08; TF 270661/08","Situation":"Pté dite  \" Ard Hyoute Louaouche \"& \"Hait Haj Mohamed \"& \"Ard El Matar\" &\"Bled M \"","Equipement":"Equipement 2"},"geometry":{"type":"Point","coordinates":[208030.690243250312051,296716.614744910504669]}},
{"type":"Feature","properties":{"ID":3,"N° dossie":"21115/2026","MOA":"Sté Vive Bâtiment S.A.R.L.A.U","MOE":"Belarbi Anass","Consistanc":"Lotissement Antalya en R+3","Référenc":"TF 251792/08; TF 64698/08; TF 232155/08; TF 64696/08; TF 67801/08; TF 270661/08","Situation":"Pté dite  \" Ard Hyoute Louaouche \"& \"Hait Haj Mohamed \"& \"Ard El Matar\" &\"Bled M \"","Equipement":"Equipement 1"},"geometry":{"type":"Point","coordinates":[208098.058948507270543,296749.770023937511723]}},
{"type":"Feature","properties":{"ID":6,"N° dossie":"125807/2025","MOA":"Sté Soukkania développement S.A.R.L","MOE":"Belarbi Anass","Consistanc":"Lotissement en R+2","Référenc":"TF 33140/J","Situation":"Rue n°34","Equipement":"Equipement\nPolyvalent"},"geometry":{"type":"Point","coordinates":[210541.320840209169546,295799.553835653292481]}},
{"type":"Feature","properties":{"ID":6,"N° dossie":"125807/2025","MOA":"Sté Soukkania développement S.A.R.L","MOE":"Belarbi Anass","Consistanc":"Lotissement en R+2","Référenc":"TF 33140/J","Situation":"Rue n°34","Equipement":"Equipement 1\n"},"geometry":{"type":"Point","coordinates":[210547.669723427097779,295770.631145438295789]}},
{"type":"Feature","properties":{"ID":6,"N° dossie":"125807/2025","MOA":"Sté Soukkania développement S.A.R.L","MOE":"Belarbi Anass","Consistanc":"Lotissement en R+2","Référenc":"TF 33140/J","Situation":"Rue n°34","Equipement":"Equipement 2\n"},"geometry":{"type":"Point","coordinates":[210531.444799647928448,295738.886729348625522]}}
]
}
