{
"type": "FeatureCollection",
"name": "DB-Equipements Lotissement",
"crs": { "type": "name", "properties": { "name": "urn:ogc:def:crs:EPSG::26191" } },
"features": [
{"type":"Feature","properties":{"FID":7,"ID":1,"N° dossie":"50524/2026","MOA":"Sté California Nord S.A.R.L","MOE":"Belarbi Anass","Consistanc":"Lotissement  Aya : lots Villas et R+2","Référenc":"T1093/Z","Situation":"Pté dite Henri et Renée","Equipement":"Equipement 1 A Ceder"},"geometry":{"type":"MultiPolygon","coordinates":[[[[214874.568039410485653,297981.236920469498727],[214890.638195685110986,297982.860431021486875],[214892.340126136405161,297979.520499058999121],[214907.01014221450896,297923.430471347703133],[214901.6810192700068,297918.629566925694235],[214900.841653520503314,297920.565619592671283],[214904.085009002301376,297923.487341684522107],[214904.134779909800272,297923.535397040599491],[214904.181110149453161,297923.586777672928292],[214904.223778104205849,297923.641237806237768],[214904.26257967526908,297923.698516934819054],[214904.297329258348327,297923.758341068401933],[214904.327860631572548,297923.820424042991363],[214904.354027750523528,297923.884468889504205],[214904.375705446815118,297923.950169254560024],[214904.392790026933653,297924.017210865567904],[214904.405199768109014,297924.085273034288548],[214904.41287530932459,297924.154030190606136],[214904.41577993525425,297924.223153440223541],[214904.413899751816643,297924.29231213737512],[214904.407243752735667,297924.361175466969144],[214904.395843776437687,297924.429414026613813],[214904.379754353867611,297924.496701402589679],[214904.359052447456634,297924.562715730979107],[214904.333837083191611,297924.627141237491742],[214892.589167673606426,297951.733386009116657],[214892.560177819250384,297951.794536261993926],[214892.527120177110191,297951.853586726705544],[214892.490146011783509,297951.910267201135866],[214892.449424508988159,297951.964318327838555],[214892.405142001458444,297952.015492780599743],[214892.357501116290223,297952.063556396169588],[214892.306719847838394,297952.108289246098138],[214892.253030560095794,297952.1494866424473],[214892.196678923559375,297952.186960074934177],[214892.137922791036544,297952.220538073393982],[214892.077031017804984,297952.25006699207006],[214892.014282231393736,297952.275411713169888],[214891.94996355654439,297952.296456264681183],[214891.88436930149328,297952.313104351400398],[214891.817799611308146,297952.325279795273673],[214891.750559094361961,297952.332926884118933],[214891.682955428666901,297952.336010626517236],[214891.615297953801928,297952.334516911942046],[214891.547896255709929,297952.328452575369738],[214891.481058749865042,297952.317845365731046],[214891.415091270115227,297952.302743819425814],[214891.350295669282787,297952.283217037853319],[214891.286968437954783,297952.259354371228255],[214891.225399347749772,297952.231265009962954],[214891.16587012540549,297952.199077484896407],[214891.108653163653798,297952.162939079047646],[214891.054010274907341,297952.123015153978486],[214891.00219149311306,297952.079488392802887],[214888.258094340591924,297949.607443212007638],[214874.568039410485653,297981.236920469498727]]]]}},
{"type":"Feature","properties":{"FID":6,"ID":1,"N° dossie":"50524/2026","MOA":"Sté California Nord S.A.R.L","MOE":"Belarbi Anass","Consistanc":"Lotissement  Aya : lots Villas et R+2","Référenc":"T1093/Z","Situation":"Pté dite Henri et Renée","Equipement":"Equipement 5 A Ceder"},"geometry":{"type":"MultiPolygon","coordinates":[[[[214704.50193282859982,297903.492705867509358],[214722.567924349190434,297915.407647131418344],[214716.605180409911554,297868.994839877181221],[214703.33628819839214,297897.324365444888826],[214704.50193282859982,297903.492705867509358]]]]}},
{"type":"Feature","properties":{"FID":9,"ID":1,"N° dossie":"50524/2026","MOA":"Sté California Nord S.A.R.L","MOE":"Belarbi Anass","Consistanc":"Lotissement  Aya : lots Villas et R+2","Référenc":"T1093/Z","Situation":"Pté dite Henri et Renée","Equipement":"Equipement 2 A Ceder"},"geometry":{"type":"MultiPolygon","coordinates":[[[[214814.630979157896945,297900.707207381317858],[214840.082087977993069,297841.969075914297719],[214802.814064480393426,297825.82137205649633],[214812.301975361711811,297899.698502199782524],[214814.630979157896945,297900.707207381317858]]]]}},
{"type":"Feature","properties":{"FID":51,"ID":1,"N° dossie":"50524/2026","MOA":"Sté California Nord S.A.R.L","MOE":"Belarbi Anass","Consistanc":"Lotissement  Aya : lots Villas et R+2","Référenc":"T1093/Z","Situation":"Pté dite Henri et Renée","Equipement":"Equipement 4 A Ceder"},"geometry":{"type":"MultiPolygon","coordinates":[[[[214661.515508849319303,297757.307018214720301],[214662.193919645011192,297757.16760335752042],[214719.590095541992923,297744.122514138289262],[214715.326920020510443,297710.205934011319187],[214696.630061099596787,297698.876560033473652],[214661.484064261429012,297757.28690369479591],[214661.515508849319303,297757.307018214720301]]]]}},
{"type":"Feature","properties":{"FID":10,"ID":1,"N° dossie":"50524/2026","MOA":"Sté California Nord S.A.R.L","MOE":"Belarbi Anass","Consistanc":"Lotissement  Aya : lots Villas et R+2","Référenc":"T1093/Z","Situation":"Pté dite Henri et Renée","Equipement":"Equipement 6 A Ceder"},"geometry":{"type":"MultiPolygon","coordinates":[[[[214931.210233146499377,297488.790986052888911],[214940.853083939291537,297461.613000729004852],[214926.427980584703619,297456.656604206480552],[214917.10629139104276,297483.786461669777054],[214931.210233146499377,297488.790986052888911]]],[[[214917.106291391013656,297483.78646166989347],[214917.10629139104276,297483.786461669777054],[214917.106291321106255,297483.786461644980591],[214917.106291391013656,297483.78646166989347]]]]}},
{"type":"Feature","properties":{"FID":12,"ID":2,"N° dossie":"47907/2026","MOA":"Sté Terra Sidi Rahal S.A.R.L","MOE":"Belarbi Anass","Consistanc":"Lotissement en villa","Référenc":"TF 34921/J","Situation":"Pté dite ‘ Amrouche 1’","Equipement":"Equipement 1\n"},"geometry":{"type":"MultiPolygon","coordinates":[[[[213307.804162128508324,297831.237964284489863],[213324.365465831913752,297830.091899004590232],[213323.579632302804384,297820.673958331171889],[213311.862144464597804,297813.714941758080386],[213307.096103143994696,297821.731411067186855],[213307.804162128508324,297831.237964284489863]]]]}},
{"type":"Feature","properties":{"FID":11,"ID":2,"N° dossie":"47907/2026","MOA":"Sté Terra Sidi Rahal S.A.R.L","MOE":"Belarbi Anass","Consistanc":"Lotissement en villa","Référenc":"TF 34921/J","Situation":"Pté dite ‘ Amrouche 1’","Equipement":"Equipement 2\n"},"geometry":{"type":"MultiPolygon","coordinates":[[[[213276.274389925791183,297822.242443458584603],[213295.063073483208427,297820.941468125383835],[213294.911690592387458,297818.776545814005658],[213301.553655585012166,297807.593162841687445],[213287.838712021009997,297799.447669188026339],[213284.81757776188897,297804.118978313577827],[213275.092201716004638,297804.756516350025777],[213276.274187075498048,297822.242457493324764],[213276.274389925791183,297822.242443458584603]]]]}},
{"type":"Feature","properties":{"FID":18,"ID":4,"N° dossie":"4234/2026 ","MOA":"Sté Vive Bâtiment S.A.R.L.A.U  et Sté Binaa Binaa Al Mahaba S.A.R.L","MOE":"Belarbi Anass","Consistanc":"Lotissement« Al Azhar » Sidi Moussa en R+2","Référenc":"TF  5610/Z","Situation":"Quartier « Sidi Moussa »","Equipement":"Parcelle \"2\"\nEquipement"},"geometry":{"type":"MultiPolygon","coordinates":[[[[212153.207607857504627,297124.436349870287813],[212189.699416562303668,297103.722367990005296],[212184.009452136495383,297097.22611574648181],[212153.148017950996291,297124.470140808611177],[212153.207607857504627,297124.436349870287813]]]]}},
{"type":"Feature","properties":{"FID":17,"ID":4,"N° dossie":"4234/2026 ","MOA":"Sté Vive Bâtiment S.A.R.L.A.U  et Sté Binaa Binaa Al Mahaba S.A.R.L","MOE":"Belarbi Anass","Consistanc":"Lotissement« Al Azhar » Sidi Moussa en R+2","Référenc":"TF  5610/Z","Situation":"Quartier « Sidi Moussa »","Equipement":"Parcelle \"1\"\nEquipement"},"geometry":{"type":"MultiPolygon","coordinates":[[[[212139.429795708012534,297089.919888443197124],[212169.137365665694233,297082.912413227371871],[212140.248732355394168,297082.904399390215985],[212139.429795591102447,297089.919888470787555],[212139.429795708012534,297089.919888443197124]]]]}},
{"type":"Feature","properties":{"FID":16,"ID":4,"N° dossie":"4234/2026 ","MOA":"Sté Vive Bâtiment S.A.R.L.A.U  et Sté Binaa Binaa Al Mahaba S.A.R.L","MOE":"Belarbi Anass","Consistanc":"Lotissement« Al Azhar » Sidi Moussa en R+2","Référenc":"TF  5610/Z","Situation":"Quartier « Sidi Moussa »","Equipement":"Equipement 3\nA cédér"},"geometry":{"type":"MultiPolygon","coordinates":[[[[212142.80862606340088,297061.952304584498052],[212146.0647322931909,297066.914755016216077],[212152.695319544494851,297066.914755016216077],[212152.695319544494851,297056.623300423379987],[212144.314340070210164,297049.630303199577611],[212142.80862606340088,297061.952304584498052]]]]}},
{"type":"Feature","properties":{"FID":19,"ID":5,"N° dossie":"126021/2025","MOA":"Sté  Action Invest S.A.R.L","MOE":"Belarbi Anass","Consistanc":"Lotissement en R+2 et R+5","Référenc":"TF 202503/08; TF 217574/08","Situation":"Avenue P","Equipement":"Equipement Polyvalent D'animation de Commerce et de Service R+2"},"geometry":{"type":"MultiPolygon","coordinates":[[[[210165.238213771313895,295846.260106019617524],[210224.266754244803451,295836.212495722109452],[210218.416156833787682,295800.611316134803928],[210196.181601481686812,295803.606182397285011],[210156.945626249391353,295811.721585670427885],[210165.238213771313895,295846.260106019617524]]]]}},
{"type":"Feature","properties":{"FID":21,"ID":7,"N° dossie":"125734/2025","MOA":"Sté Home Développement","MOE":"Belarbi Anass","Consistanc":"Lotissement en R+2","Référenc":"TF  66718/08","Situation":"Rue n°19","Equipement":"Equipement Mosquée"},"geometry":{"type":"MultiPolygon","coordinates":[[[[210701.318902113795048,295818.52582161128521],[210682.223359852301655,295808.039819008205086],[210676.840195590310032,295821.735399413271807],[210677.175487275526393,295823.397137721127365],[210701.318902113795048,295818.52582161128521]]],[[[210677.175487275497289,295823.397137721127365],[210677.175487278698711,295823.397137736785226],[210677.175487275526393,295823.397137721127365],[210677.175487275497289,295823.397137721127365]]]]}},
{"type":"Feature","properties":{"FID":22,"ID":8,"N° dossie":"11384/2026","MOA":"Sté Motassim Invest S.A.R.L","MOE":"Tibary Chouaib","Consistanc":"Lotissement en R+2 et Villas","Référenc":"TF 106756/08","Situation":"RP 3408 et rue n°357","Equipement":"Equipement A Ceder Gratuitement"},"geometry":{"type":"MultiPolygon","coordinates":[[[[213592.570738607493695,297067.760937430488411],[213602.265239402709994,297039.839000983105507],[213641.384596626012353,297053.154061681590974],[213598.624217930308077,297019.79248959152028],[213573.826278920110781,297050.021083809493575],[213592.570738607493695,297067.760937430488411]]]]}},
{"type":"Feature","properties":{"FID":36,"ID":9,"N° dossie":"46920/2026","MOA":"Sté Dinh S.A.R.L","MOE":"Belarbi Anass","Consistanc":"Lotissement en R+2","Référenc":"TF 132574/08","Situation":"Pté dite \"Ard Essania\"","Equipement":"Equipement sportive privé"},"geometry":{"type":"MultiPolygon","coordinates":[[[[208116.026985361095285,298685.772078957408667],[208153.616714063711697,298643.360774105181918],[208146.817092378507368,298634.225227963295765],[208128.771210859093117,298619.307086794695351],[208091.50939710289822,298661.68515075702453],[208116.026985361095285,298685.772078957408667]]]]}},
{"type":"Feature","properties":{"FID":37,"ID":10,"N° dossie":"55448/2026","MOA":"Sté Al Binaa Al Badil S.A.R.L","MOE":"Belarbi Anass","Consistanc":"Lotissement de villas et construction d’un groupement d’habitation en R+2","Référenc":"TF 127938/08","Situation":"Pté  dite: \"Ard  Feddane\"  Avenue Jabrane Khalil Jabrane","Equipement":"Equipement de santé(centre de santé) :S26 à céder sans droit à l’indemnisation (suite l’article 5.2 du règlement d’aménagement)"},"geometry":{"type":"MultiPolygon","coordinates":[[[[207490.638823875429807,298190.799373025249224],[207504.306049433536828,298164.117405522905756],[207480.483906308334554,298144.192726378445514],[207475.764975849539042,298147.29621976101771],[207461.116279929934535,298163.644476729445159],[207490.638823875429807,298190.799373025249224]]]]}},
{"type":"Feature","properties":{"FID":38,"ID":10,"N° dossie":"55448/2026","MOA":"Sté Al Binaa Al Badil S.A.R.L","MOE":"Belarbi Anass","Consistanc":"Lotissement de villas et construction d’un groupement d’habitation en R+2","Référenc":"TF 127938/08","Situation":"Pté  dite: \"Ard  Feddane\"  Avenue Jabrane Khalil Jabrane","Equipement":"Administration au RDC, à construire et à céder sans droit à l’indemnisation (suite l’article 5.2 du règlement d’aménagement)"},"geometry":{"type":"MultiPolygon","coordinates":[[[[207385.407463372743223,298333.411750844155904],[207395.623714921122883,298338.644023413653485],[207396.232276473019738,298337.491098153870553],[207396.282833171339007,298337.414521642262116],[207396.467347684229026,298337.493932260666043],[207405.138283699721796,298320.552292592939921],[207398.692791366222082,298314.644114853464998],[207385.367971694737207,298333.391588439641055],[207385.407463372743223,298333.411750844155904]]]]}},
{"type":"Feature","properties":{"FID":41,"ID":11,"N° dossie":"39387/2026","MOA":"Sté Soukaina Gestion S.A.R.L","MOE":"Belarbi Anass","Consistanc":"lotissement en R+2 et R+3","Référenc":"TF 72926/08","Situation":"Douar Elgharbia","Equipement":"Equipement 3 Sera cédés\nsans droit à l’indemnisation\n(article 5.2)"},"geometry":{"type":"MultiPolygon","coordinates":[[[[212408.645100520108826,295747.033720744075254],[212427.740214020304848,295740.436651164200157],[212419.600788415496936,295718.718646891997196],[212398.834672376600793,295726.094247508211993],[212408.645097147498745,295747.033721909392625],[212408.645100520108826,295747.033720744075254]]]]}},
{"type":"Feature","properties":{"FID":53,"ID":13,"N° dossie":"72278/2026","MOA":"Sté Immo Drome S.A.R.L","MOE":"Belarbi Anass","Consistanc":"Lotissement de villas et R+2","Référenc":"TF 2084/C; TF 113494/08; TF 7809/C","Situation":"Douar \"Gharbia\"","Equipement":"Equipement\nPolyvalent 1"},"geometry":{"type":"MultiPolygon","coordinates":[[[[214627.582131377013866,298023.664423370617442],[214646.651155029510846,298024.592531566391699],[214647.275355551129906,298024.601236714981496],[214647.898658010468353,298024.566651819448452],[214648.518063734896714,298024.488943265634589],[214649.130592798843281,298024.368484905047808],[214649.733298359875334,298024.205856255954131],[214650.323280835931655,298024.00183971557999],[214650.897701854933985,298023.757416795706376],[214651.453797910129651,298023.473763401212636],[214651.988893655099673,298023.152244172350038],[214652.500414774724049,298022.794405919848941],[214652.985900370054878,298022.401970183011144],[214653.443014797609067,298021.976824947923888],[214653.869558905920712,298021.521015563979745],[214654.263480615598382,298021.036734904220793],[214654.622884791780962,298020.526312815200072],[214654.946042361465516,298019.992204908514395],[214655.231398631993216,298019.436980746861082],[214655.477580770617351,298018.863311482069548],[214655.68340440915199,298018.273957004130352],[214655.847879341745283,298017.67175266391132],[214655.970214288914576,298017.059595632192213],[214656.049820704181911,298016.440430961491074],[214656.086315605643904,298015.817237417737488],[214656.079523418389726,298015.193013149546459],[214656.029476819268893,298014.570761264243629],[214655.936416579585057,298013.953475380258169],[214655.800790406879969,298013.344125224684831],[214655.623250790929887,298012.745642346446402],[214655.404651864693733,298012.160906012461055],[214655.146045295114163,298011.592729355965275],[214654.848675223707687,298011.043845842417795],[214654.513972280896269,298010.516896119166631],[214654.143546703446191,298010.014415311161429],[214653.739180587726878,298009.538820825051516],[214653.302819316013483,298009.092400718654972],[214652.836562197539024,298008.677302693773527],[214652.34265236867941,298008.295523763285019],[214651.823466001515044,298007.948900643794332],[214651.281500871991739,298007.639100919477642],[214628.818101261393167,297998.269291133212391],[214627.58206407650141,298023.664502167317551],[214627.582131377013866,298023.664423370617442]]]]}},
{"type":"Feature","properties":{"FID":52,"ID":13,"N° dossie":"72278/2026","MOA":"Sté Immo Drome S.A.R.L","MOE":"Belarbi Anass","Consistanc":"Lotissement de villas et R+2","Référenc":"TF 2084/C; TF 113494/08; TF 7809/C","Situation":"Douar \"Gharbia\"","Equipement":"Equipement\nPolyvalent 3"},"geometry":{"type":"MultiPolygon","coordinates":[[[[214489.132121670903871,297964.683014923823066],[214540.987143813312287,297967.467992883000989],[214541.021560750989011,297961.576473546680063],[214497.964148780389223,297943.722603478818201],[214489.132121670903871,297964.683014923823066]]]]}},
{"type":"Feature","properties":{"FID":54,"ID":13,"N° dossie":"72278/2026","MOA":"Sté Immo Drome S.A.R.L","MOE":"Belarbi Anass","Consistanc":"Lotissement de villas et R+2","Référenc":"TF 2084/C; TF 113494/08; TF 7809/C","Situation":"Douar \"Gharbia\"","Equipement":"Equipement\nPolyvalent 2"},"geometry":{"type":"MultiPolygon","coordinates":[[[[214727.462996213609586,297995.942901308881119],[214740.000085633306298,297990.197586373891681],[214732.669547868106747,297973.574014830985107],[214731.478544023790164,297960.429030623519793],[214729.990487717208453,297958.868965447181836],[214713.366598806489492,297988.008046705508605],[214727.458802666689735,297995.927685534115881],[214740.000059581710957,297990.197575390106067],[214727.462996213609586,297995.942901308881119]]]]}},
{"type":"Feature","properties":{"FID":55,"ID":13,"N° dossie":"72278/2026","MOA":"Sté Immo Drome S.A.R.L","MOE":"Belarbi Anass","Consistanc":"Lotissement de villas et R+2","Référenc":"TF 2084/C; TF 113494/08; TF 7809/C","Situation":"Douar \"Gharbia\"","Equipement":"Equipement\nPolyvalent 2"},"geometry":{"type":"MultiPolygon","coordinates":[[[[214719.865175845101476,297984.700149230775423],[214727.658440991886891,297989.142619829101022],[214733.941121829411713,297986.372303869284224],[214727.386103431199444,297971.506458573392592],[214719.865175845101476,297984.700149230775423]]]]}},
{"type":"Feature","properties":{"FID":46,"ID":12,"N° dossie":"36187/2026","MOA":"Groupe OCP S.A","MOE":"Anba Youssef","Consistanc":"Réalisation d'un lotissement \"Opération Phosphore El Fath 3\"","Référenc":"TF 59499/08; TF 62414/08; TF 115533/08; TF 115534/08; TF 116138/08; TF 116889/08; TF 117884/08; TF 126167/08; TF 208601/08; TF 209095/08; TF 230839/08; TF 230840/08","Situation":"Angle avenue \"Jabrane Khalil Jabrane\" et l'avenue \"R\"","Equipement":"Equipement"},"geometry":{"type":"MultiPolygon","coordinates":[[[[210361.823355041648028,295969.528647122089751],[210359.783440700324718,295957.833138231828343],[210297.90603901410941,295970.072624279768206],[210309.788526208285475,296047.622503474471159],[210309.958803898916813,296048.487198775284924],[210310.188425273372559,296049.338060972979292],[210310.476292612060206,296050.171022466965951],[210310.821029746904969,296050.982101231988054],[210311.220988640241558,296051.767419854411855],[210311.674257263133768,296052.523224068921991],[210312.178668736189138,296053.245900705456734],[210312.731811688427115,296053.931994962505996],[210313.331041784811532,296054.578226922953036],[210313.97349436787772,296055.181507233995944],[210314.656098152307095,296055.738951875711791],[210315.375589907431277,296056.247895948763471],[210316.128530057234457,296056.705906413611956],[210316.911319123610156,296057.110793722269591],[210317.720214933768148,296057.460622285259888],[210318.55135050995159,296057.753719724947587],[210319.400752555840882,296057.988684870360885],[210320.264360451110406,296058.16439445578726],[210321.1380456633633,296058.280008490371983],[210322.017631485097809,296058.334974273981061],[210322.898913000477478,296058.329029039072338],[210323.777677187288646,296058.262201207282487],[210412.413230706006289,296040.517666199360974],[210396.637893133243779,295961.912966914533172],[210361.823355041648028,295969.528647122089751]]]]}},
{"type":"Feature","properties":{"FID":58,"ID":12,"N° dossie":"36187/2026","MOA":"Groupe OCP S.A","MOE":"Anba Youssef","Consistanc":"Réalisation d'un lotissement \"Opération Phosphore El Fath 3\"","Référenc":"TF 59499/08; TF 62414/08; TF 115533/08; TF 115534/08; TF 116138/08; TF 116889/08; TF 117884/08; TF 126167/08; TF 208601/08; TF 209095/08; TF 230839/08; TF 230840/08","Situation":"Angle avenue \"Jabrane Khalil Jabrane\" et l'avenue \"R\"","Equipement":"Equipepment"},"geometry":{"type":"MultiPolygon","coordinates":[[[[210412.957207863684744,296040.517666199477389],[210476.874523891223362,296027.734202993975487],[210481.498329731519334,296009.510968211630825],[210468.442877947178204,295935.530074767011683],[210360.599406436871504,295957.153166784904897],[210361.959349331067642,295968.984669964469504],[210397.181870290922234,295961.776972625171766],[210412.957207863684744,296040.517666199477389]]]]}},
{"type":"Feature","properties":{"FID":44,"ID":12,"N° dossie":"36187/2026","MOA":"Groupe OCP S.A","MOE":"Anba Youssef","Consistanc":"Réalisation d'un lotissement \"Opération Phosphore El Fath 3\"","Référenc":"TF 59499/08; TF 62414/08; TF 115533/08; TF 115534/08; TF 116138/08; TF 116889/08; TF 117884/08; TF 126167/08; TF 208601/08; TF 209095/08; TF 230839/08; TF 230840/08","Situation":"Angle avenue \"Jabrane Khalil Jabrane\" et l'avenue \"R\"","Equipement":"Equipement"},"geometry":{"type":"MultiPolygon","coordinates":[[[[210032.386440633097664,296181.233466886100359],[210044.427821273100562,296178.830101732281037],[210041.508307884796523,296164.172055641072802],[210021.023082166910172,296168.252196361892857],[210024.532843874709215,296173.627935424388852],[210032.430267986899707,296181.224634589278139],[210032.386440633097664,296181.233466886100359]]]]}},
{"type":"Feature","properties":{"FID":42,"ID":12,"N° dossie":"36187/2026","MOA":"Groupe OCP S.A","MOE":"Anba Youssef","Consistanc":"Réalisation d'un lotissement \"Opération Phosphore El Fath 3\"","Référenc":"TF 59499/08; TF 62414/08; TF 115533/08; TF 115534/08; TF 116138/08; TF 116889/08; TF 117884/08; TF 126167/08; TF 208601/08; TF 209095/08; TF 230839/08; TF 230840/08","Situation":"Angle avenue \"Jabrane Khalil Jabrane\" et l'avenue \"R\"","Equipement":"Equipement"},"geometry":{"type":"MultiPolygon","coordinates":[[[[210054.49272296691197,296390.386990914295893],[210054.492756925697904,296390.387127160502132],[210093.411258357402403,296382.618304875912145],[210082.651765187707497,296335.06206286791712],[210042.870828037208412,296343.758685049309861],[210054.49272296691197,296390.386990914295893]]]]}},
{"type":"Feature","properties":{"FID":43,"ID":12,"N° dossie":"36187/2026","MOA":"Groupe OCP S.A","MOE":"Anba Youssef","Consistanc":"Réalisation d'un lotissement \"Opération Phosphore El Fath 3\"","Référenc":"TF 59499/08; TF 62414/08; TF 115533/08; TF 115534/08; TF 116138/08; TF 116889/08; TF 117884/08; TF 126167/08; TF 208601/08; TF 209095/08; TF 230839/08; TF 230840/08","Situation":"Angle avenue \"Jabrane Khalil Jabrane\" et l'avenue \"R\"","Equipement":"Equipement"},"geometry":{"type":"MultiPolygon","coordinates":[[[[210069.345199444593163,295978.434030885924585],[210103.085750238504261,295971.814253430697136],[210088.362188185099512,295941.047219438070897],[210062.986699362401851,295946.025911537813954],[210069.345108045003144,295978.433565028419252],[210069.345199444593163,295978.434030885924585]]]]}},
{"type":"Feature","properties":{"FID":13,"ID":3,"N° dossie":"21115/2026","MOA":"Sté Vive Bâtiment S.A.R.L.A.U","MOE":"Belarbi Anass","Consistanc":"Lotissement Antalya en R+3","Référenc":"TF 251792/08; TF 64698/08; TF 232155/08; TF 64696/08; TF 67801/08; TF 270661/08","Situation":"Pté dite  \" Ard Hyoute Louaouche \"& \"Hait Haj Mohamed \"& \"Ard El Matar\" &\"Bled M \"","Equipement":"Equipement 2"},"geometry":{"type":"MultiPolygon","coordinates":[[[[208031.610619248589501,296729.393179788021371],[208035.549820802989416,296724.150052958924789],[208046.924315660813591,296718.379049075301737],[208049.799848107999424,296718.870157810102683],[208053.139819304400589,296717.270593673980329],[208036.266042905888753,296700.434439405915327],[208020.843355744495057,296715.850099440896884],[208031.610619248589501,296729.393179788021371]]]]}},
{"type":"Feature","properties":{"FID":14,"ID":3,"N° dossie":"21115/2026","MOA":"Sté Vive Bâtiment S.A.R.L.A.U","MOE":"Belarbi Anass","Consistanc":"Lotissement Antalya en R+3","Référenc":"TF 251792/08; TF 64698/08; TF 232155/08; TF 64696/08; TF 67801/08; TF 270661/08","Situation":"Pté dite  \" Ard Hyoute Louaouche \"& \"Hait Haj Mohamed \"& \"Ard El Matar\" &\"Bled M \"","Equipement":"Equipement 1"},"geometry":{"type":"MultiPolygon","coordinates":[[[[208100.151383918186184,296761.848849080794025],[208105.919416041113436,296749.260920891014393],[208097.376435416605091,296740.733069004083518],[208088.157221259898506,296749.973746526695322],[208100.151383918186184,296761.848849080794025]]]]}},
{"type":"Feature","properties":{"FID":20,"ID":6,"N° dossie":"125807/2025","MOA":"Sté Soukkania développement S.A.R.L","MOE":"Belarbi Anass","Consistanc":"Lotissement en R+2","Référenc":"TF 33140/J","Situation":"Rue n°34","Equipement":"Equipement 2\n"},"geometry":{"type":"MultiPolygon","coordinates":[[[[210516.245683621295029,295713.543717952619772],[210522.055115173308877,295751.498124471923802],[210519.110697138996329,295752.091253423714079],[210520.997677523788298,295764.46200011880137],[210530.959904921503039,295762.456124887685291],[210528.492346961400472,295750.201854923798237],[210566.100048605207121,295742.628592561406549],[210536.921318681212142,295722.759483305213507],[210516.245683621207718,295713.543717952386942],[210516.245683621295029,295713.543717952619772]]]]}},
{"type":"Feature","properties":{"FID":39,"ID":11,"N° dossie":"39387/2026","MOA":"Sté Soukaina Gestion S.A.R.L","MOE":"Belarbi Anass","Consistanc":"lotissement en R+2 et R+3","Référenc":"TF 72926/08","Situation":"Douar Elgharbia","Equipement":"Equipement "},"geometry":{"type":"MultiPolygon","coordinates":[[[[212417.479762560891686,295789.647727590287104],[212426.421167531312676,295785.517635261407122],[212398.953714413801208,295726.052508708497044],[212360.155441618291661,295739.656050575489644],[212360.632180258602602,295755.313169130880851],[212363.879568504897179,295753.940045872412156],[212394.781975726276869,295804.598369066370651],[212417.479762560891686,295789.647727590287104]]],[[[212394.781975730089471,295804.598369072598871],[212394.781975726276869,295804.598369066370651],[212394.781942982692271,295804.598390633997042],[212394.781975730089471,295804.598369072598871]]]]}},
{"type":"Feature","properties":{"FID":57,"ID":11,"N° dossie":"39387/2026","MOA":"Sté Soukaina Gestion S.A.R.L","MOE":"Belarbi Anass","Consistanc":"lotissement en R+2 et R+3","Référenc":"TF 72926/08","Situation":"Douar Elgharbia","Equipement":"Equipement "},"geometry":{"type":"MultiPolygon","coordinates":[[[[212397.198886936996132,295751.036821882065851],[212408.673405106790597,295747.041989630204625],[212399.187803419685224,295726.132867631851695],[212387.764283108379459,295730.212696314498316],[212397.198886936996132,295751.036821882065851]]]]}},
{"type":"Feature","properties":{"FID":45,"ID":12,"N° dossie":"36187/2026","MOA":"Groupe OCP S.A","MOE":"Anba Youssef","Consistanc":"Réalisation d'un lotissement \"Opération Phosphore El Fath 3\"","Référenc":"Réalisation d'un lotissement \"Opération Phosphore El Fath 3\"","Situation":"Angle avenue \"Jabrane Khalil Jabrane\" et l'avenue \"R\"","Equipement":"Equipement"},"geometry":{"type":"MultiPolygon","coordinates":[[[[210230.63058427881333,296058.539423986105248],[210259.842898962291656,296053.880194392579142],[210247.690305008407449,295979.927244777791202],[210182.266413921897765,295992.76198053418193],[210212.979025616601575,296036.444430466799531],[210230.595611983910203,296058.545001905993558],[210230.63058427881333,296058.539423986105248]]]]}},
{"type":"Feature","properties":{"FID":3,"ID":12,"N° dossie":"36187/2026","MOA":"Groupe OCP S.A","MOE":"Anba Youssef","Consistanc":"Réalisation d'un lotissement \"Opération Phosphore El Fath 3\"","Référenc":"TF 59499/08; TF 62414/08; TF 115533/08; TF 115534/08; TF 116138/08; TF 116889/08; TF 117884/08; TF 126167/08; TF 208601/08; TF 209095/08; TF 230839/08; TF 230840/08","Situation":"Angle avenue \"Jabrane Khalil Jabrane\" et l'avenue \"R\"","Equipement":"Equipement"},"geometry":{"type":"MultiPolygon","coordinates":[[[[210058.358348,296296.688585],[210086.876292000088142,296324.223153000115417],[210139.297873,296272.406727999972645],[210106.165618,296241.997672999917995],[210058.358348,296296.688585]]]]}},
{"type":"Feature","properties":{"FID":24,"ID":8,"N° dossie":"11384/2026","MOA":"Sté Motassim Invest S.A.R.L","MOE":"Tibary Chouaib","Consistanc":"Lotissement en R+2 et Villas","Référenc":"TF 106756/08","Situation":"RP 3408 et rue n°357","Equipement":"Equipement A Ceder Gratuitement"},"geometry":{"type":"MultiPolygon","coordinates":[[[[213527.582830158411525,297009.250584885419812],[213541.490523716609459,296993.522444096277468],[213531.034535923594376,296983.958203380578198],[213516.786903652013279,296999.534251029486768],[213527.582830158411525,297009.250584885419812]]]]}},
{"type":"Feature","properties":{"FID":23,"ID":8,"N° dossie":"11384/2026","MOA":"Sté Motassim Invest S.A.R.L","MOE":"Tibary Chouaib","Consistanc":"Lotissement en R+2 et Villas","Référenc":"TF 106756/08","Situation":"RP 3408 et rue n°357","Equipement":"Equipement A Ceder Gratuitement"},"geometry":{"type":"MultiPolygon","coordinates":[[[[213643.416771027201321,296870.745198353019077],[213632.303317270590924,296860.076282746624202],[213517.485463602410164,296920.27944938238943],[213534.16618614201434,296936.430917501391377],[213630.334648319403641,296885.901790091709699],[213629.805393898801412,296884.885702891100664],[213643.416771027201321,296870.745198353019077]]]]}}
]
}
