{
"type": "FeatureCollection",
"name": "Lotissements1",
"crs": { "type": "name", "properties": { "name": "urn:ogc:def:crs:EPSG::26191" } },
"features": [
{"type":"Feature","properties":{"ID":1,"N° dossie":"50524/2026","MOA":"Sté California Nord S.A.R.L","MOE":"Belarbi Anass","Consistanc":"Lotissement  Aya : lots Villas et R+2","Référenc":"T1093/Z","Situation":"Pté dite Henri et Renée","Date de co":"13/07/2026","Surface te":"77860 m²","Surface ce":"40005.71 m²","Contributi":"4 000.57 m²","Espaces ve":"_","Equipement":"Equipement 1 : 745.62 m²; Equipement 2 : 530 m²; Equipement 3 : 777.84 m²; Equipement 4 : 578.18 m²; Equipement 5 : 667.58 m²; Equipement 6 : 701,35 m²","X":214850,"Y":297750,"Fiche Tech":"Fiche_Technique/1.pdf","Plan Masse":"Plan_Masse/1.pdf"},"geometry":{"type":"MultiPolygon","coordinates":[[[[214761.171676,297992.938964999979362],[214890.22105,297983.710345999978017],[214892.33909299998777,297979.549903],[214907.014109999989159,297923.421746],[214872.974123,297892.785757999983616],[214871.007368,297882.649405999982264],[214859.131195,297875.765765000018291],[214903.761399999988498,297830.227826000016648],[214954.064936,297820.318408],[214983.036748000013176,297820.394052000017837],[215002.553007,297765.930073000025004],[215010.117448,297766.989095000026282],[215030.995307,297703.44778500002576],[214989.996034000010695,297689.680501999973785],[214946.727428000012878,297675.459351999976207],[214896.272603,297653.295538],[214959.284401000011712,297487.180401000019629],[214972.597818,297460.402278000023216],[214931.144678000011481,297442.928416999988258],[214863.367282,297640.284698],[214846.574222,297635.897322],[214799.296462,297723.115333000023384],[214760.793454,297713.735426000028383],[214754.590612,297734.008129000023473],[214749.295503,297772.586781000019982],[214743.546527,297797.927661],[214718.508226,297839.380801],[214708.977029,297842.028355000016745],[214690.444147,297836.506313],[214656.025938,297909.881395999982487],[214729.325377,297958.218178000010084],[214739.159151,297968.430173999979161],[214744.302971,297999.973895],[214761.171676,297992.938964999979362]]]]}},
{"type":"Feature","properties":{"ID":2,"N° dossie":"47907/2026","MOA":"Sté Terra Sidi Rahal S.A.R.L","MOE":"Belarbi Anass","Consistanc":"Lotissement en villa","Référenc":"TF 34921/J","Situation":"Pté dite ‘ Amrouche 1’","Date de co":"30/06/2026","Surface te":"12797 m²","Surface ce":"8531,56 m²","Contributi":"853.45 m²","Espaces ve":"Espace verts : 151.99m²","Equipement":"Equipement1 : 252.39m²; Equipement2 : 449.07m²","X":213300,"Y":297950,"Fiche Tech":"Fiche_Technique/2.pdf","Plan Masse":"Plan_Masse/2.pdf"},"geometry":{"type":"MultiPolygon","coordinates":[[[[213273.926818,297788.32082000002265],[213293.67001,298073.651556],[213342.536303,298057.161074],[213329.903685,297896.492334],[213323.322621,297817.595209],[213273.926818,297788.32082000002265]]]]}},
{"type":"Feature","properties":{"ID":4,"N° dossie":"4234/2026 ","MOA":"Sté Vive Bâtiment S.A.R.L.A.U  et Sté Binaa Binaa Al Mahaba S.A.R.L","MOE":"Belarbi Anass","Consistanc":"Lotissement« Al Azhar » Sidi Moussa en R+2","Référenc":"TF  5610/Z","Situation":"Quartier « Sidi Moussa »","Date de co":"03/03/2026","Surface te":"11298 m²","Surface ce":"3 419.73 m²","Contributi":"451.7 m²","Espaces ve":"Parking : 49.1 m²","Equipement":"Equipement 1: 100.66 m²; Equipement 2: 177.81 m²; Equipement 3: 124.13 m²","X":212190,"Y":297100,"Fiche Tech":"Fiche_Technique/4.pdf","Plan Masse":"Plan_Masse/4.pdf"},"geometry":{"type":"MultiPolygon","coordinates":[[[[212143.269735,297167.128878000017721],[212125.947164000011981,297150.260172999987844],[212105.220594000013079,297166.977589000016451],[212096.672775000013644,297177.492162999988068],[212116.642901000013808,297195.117311],[212102.724328000011155,297208.884595000010449],[212128.216496,297239.520582999975886],[212136.99124900001334,297236.873029],[212158.020396,297251.169822999974713],[212172.317191,297230.443253999983426],[212169.896570000011707,297227.795699],[212162.785994,297218.7940139999846],[212173.149279,297209.414105999981984],[212165.736127000011038,297201.244508999981917],[212168.081104000011692,297199.277753999980632],[212167.85417,297199.050821000011638],[212170.577369,297195.571178000012878],[212157.642174,297186.191270000010263],[212167.702881,297171.213676000013947],[212179.881632,297155.101414999982808],[212191.379584,297160.547812999982852],[212213.165175,297135.736444999987725],[212237.144455,297130.592625],[212239.565076,297123.406405000016093],[212243.57423,297105.478679],[212258.854402,297077.112023000023328],[212252.424627,297052.451943000021856],[212235.480278,297067.278249000024516],[212218.687218,297075.372201],[212211.274065,297078.397978],[212164.071950000012293,297058.352208000025712],[212156.20493,297059.562518000020646],[212144.328757000010228,297049.6531],[212139.411870000010822,297089.895929],[212171.409458,297082.407132000022102],[212184.042075,297097.233437000017148],[212152.422709,297125.146227],[212160.365373,297163.271011999982875],[212143.269735,297167.128878000017721]]]]}},
{"type":"Feature","properties":{"ID":5,"N° dossie":"126021/2025","MOA":"Sté  Action Invest S.A.R.L","MOE":"Belarbi Anass","Consistanc":"Lotissement en R+2 et R+5","Référenc":"TF 202503/08; TF 217574/08","Situation":"Avenue P","Date de co":"16/06/2026","Surface te":"10099 m²","Surface ce":"3 868.78 m²","Contributi":"772.41m²","Espaces ve":"Espace Vert :772.41 m²","Equipement":"_","X":210250,"Y":297780,"Fiche Tech":"Fiche_Technique/5.pdf","Plan Masse":"Plan_Masse/5.pdf"},"geometry":{"type":"MultiPolygon","coordinates":[[[[210165.243907,295846.150444999977481],[210195.047807,295840.325825],[210307.152831000013975,295824.667430999979842],[210398.228708,295812.261746999982279],[210443.766646,295805.907615999982227],[210439.37927,295771.262472999980673],[210321.600914999988163,295786.769579000014346],[210301.55514400001266,295789.492778000014368],[210196.182473,295803.638282999978401],[210156.923021,295811.656590999977197],[210165.243907,295846.150444999977481]]]]}},
{"type":"Feature","properties":{"ID":7,"N° dossie":"125734/2025","MOA":"Sté Home Développement","MOE":"Belarbi Anass","Consistanc":"Lotissement en R+2","Référenc":"TF  66718/08","Situation":"Rue n°19","Date de co":"24/02/2026","Surface te":"10154.00 m²","Surface ce":"4 800.84 m²","Contributi":"585.37 m²","Espaces ve":"Mosquée (M46) : 179.45 m²; Place/Parking : 405.92 m²","Equipement":"_","X":210600,"Y":295950,"Fiche Tech":"Fiche_Technique/7.pdf","Plan Masse":"Plan_Masse/7.pdf"},"geometry":{"type":"MultiPolygon","coordinates":[[[[210533.405279,296039.27063799998723],[210561.393713,296063.703785000019707],[210602.166053,296002.507452],[210658.899365,295920.584550000028685],[210700.806371000013314,295854.698264],[210713.741566000011517,295825.348231000010855],[210682.197844999987865,295808.025658999977168],[210677.961757000011858,295818.842811],[210672.515359000011813,295832.231871999974828],[210645.207724999985658,295875.727412],[210579.321439,295971.190664],[210533.405279,296039.27063799998723]]]]}},
{"type":"Feature","properties":{"ID":8,"N° dossie":"11384/2026","MOA":"Sté Motassim Invest S.A.R.L","MOE":"Tibary Chouaib","Consistanc":"Lotissement en R+2 et Villas","Référenc":"TF 106756/08","Situation":"RP 3408 et rue n°357","Date de co":"11/08/2026","Surface te":"33691 m²","Surface ce":"19821.94 m²","Contributi":"2299.16 m²","Espaces ve":"Parking : 710m²; Espace vert 1: 185 m²; Espace vert 2 : 90 m²; Ecole coranique ou kottab : 301.16 m²","Equipement":"Equipement 1 : 1013m²","X":213580,"Y":296930,"Fiche Tech":"Fiche_Technique/8.pdf","Plan Masse":"Plan_Masse/8.pdf"},"geometry":{"type":"MultiPolygon","coordinates":[[[[213562.132042000012007,296972.495796],[213526.654810999985784,297013.722002000024077],[213521.435346000012942,297019.8492],[213561.526886,297057.898341000021901],[213583.009901000012178,297032.935684000025503],[213618.411487,296991.785121999972034],[213562.132042000012007,296972.495796]]]]}},
{"type":"Feature","properties":{"ID":9,"N° dossie":"46920/2026","MOA":"Sté Dinh S.A.R.L","MOE":"Belarbi Anass","Consistanc":"Lotissement en R+2","Référenc":"TF 132574/08","Situation":"Pté dite \"Ard Essania\"","Date de co":"En cours d'instruction","Surface te":"17731 m²","Surface ce":"7362.53 m²","Contributi":"850.84 m²","Espaces ve":"Espace vert: 850.84 m²","Equipement":"_","X":208200,"Y":298680,"Fiche Tech":"Fiche_Technique/9.pdf","Plan Masse":"Plan_Masse/9.pdf"},"geometry":{"type":"MultiPolygon","coordinates":[[[[208103.025843999988865,298557.246305999986362],[208046.065599,298624.87241399998311],[208089.40985,298671.242441],[208156.809023999987403,298720.335666999977548],[208268.006315,298726.235930999973789],[208294.784438,298741.743036],[208306.887545,298727.975753],[208269.367915,298711.333981],[208241.303836,298691.288210999977309],[208217.097623,298668.746174999978393],[208190.773366999987047,298640.303874999983236],[208169.592930000013439,298612.391085000010207],[208103.025843999988865,298557.246305999986362]]]]}},
{"type":"Feature","properties":{"ID":10,"N° dossie":"55448/2026","MOA":"Sté Al Binaa Al Badil S.A.R.L","MOE":"Belarbi Anass","Consistanc":"Lotissement de villas et construction d’un groupement d’habitation en R+2","Référenc":"TF 127938/08","Situation":"Pté  dite: \"Ard  Feddane\"  Avenue Jabrane Khalil Jabrane","Date de co":"01/09/2026","Surface te":"24 944 m²","Surface ce":"13528.19 m²","Contributi":"1353,1m²","Espaces ve":"Parking : 74,57m²","Equipement":"Equipement 1: 1019,28 m²; Equipement 2: 224,66 m²; Parcelle 'A' (chute) : 34,59 m²","X":207500,"Y":298300,"Fiche Tech":"Fiche_Technique/10.pdf","Plan Masse":"Plan_Masse/10.pdf"},"geometry":{"type":"MultiPolygon","coordinates":[[[[207434.858719999989262,298473.432294],[207449.76066999998875,298480.996735],[207507.023492999986047,298403.385565],[207461.788131999986945,298381.826905999972951],[207495.67683000001125,298339.919899999978952],[207498.173096000013174,298335.456879],[207494.390875000011874,298324.185860999976285],[207541.214768,298289.540718999982346],[207547.417611000011675,298271.461703],[207585.693685,298241.355226000014227],[207536.222237,298190.522179000021424],[207480.699235999985831,298144.076507000019774],[207476.009282000013627,298147.177928],[207420.788859,298208.752482999989297],[207447.718271,298243.019403000012971],[207426.613479,298265.258861],[207430.471344,298271.007837000011932],[207404.827887,298305.577334999979939],[207359.743815,298369.194289],[207348.170219,298389.76957],[207367.686479,298404.671519999974407],[207337.655646,298446.502882],[207358.306571,298452.100568],[207369.199367,298439.316662000026554],[207392.573492,298457.244389],[207412.392327999987174,298473.88616],[207421.24272499998915,298464.657541],[207434.858719999989262,298473.432294]]]]}},
{"type":"Feature","properties":{"ID":11,"N° dossie":"39387/2026","MOA":"Sté Soukaina Gestion S.A.R.L","MOE":"Belarbi Anass","Consistanc":"lotissement en R+2 et R+3","Référenc":"TF 72926/08","Situation":"Douar Elgharbia","Date de co":"01/09/2026","Surface te":"15060 m²","Surface ce":"7636.1 m²","Contributi":"764.08 m²","Espaces ve":"_","Equipement":"Equipement 1 : 484.37 m²; Equipement 2 : 279.71 m²","X":212400,"Y":295730,"Fiche Tech":"Fiche_Technique/11.pdf","Plan Masse":"Plan_Masse/11.pdf"},"geometry":{"type":"MultiPolygon","coordinates":[[[[212412.790789,295718.840893000015058],[212360.142275,295738.432796999986749],[212360.596142,295755.22585699998308],[212363.848852,295753.939902000012808],[212405.150703,295821.641653999977279],[212426.8606499999878,295807.344860000011977],[212553.943268,295748.644793000014033],[212522.323903000011342,295669.596379],[212412.790789,295718.840893000015058]]]]}},
{"type":"Feature","properties":{"ID":13,"N° dossie":"72278/2026","MOA":"Sté Immo Drome S.A.R.L","MOE":"Belarbi Anass","Consistanc":"Lotissement de villas et R+2","Référenc":"TF 2084/C; TF 113494/08; TF 7809/C","Situation":"Douar \"Gharbia\"","Date de co":"En cours d'instruction","Surface te":"60398 m²","Surface ce":"27162,38 m²","Contributi":"3590,38 m²","Espaces ve":"Espace Vert: 1845,27m²","Equipement":"Equipement 1 :1745,11 m²","X":214550,"Y":298000,"Fiche Tech":"Fiche_Technique/13.pdf","Plan Masse":"Plan_Masse/13.pdf"},"geometry":{"type":"MultiPolygon","coordinates":[[[[214470.318898,298025.23913],[214490.591601,298026.071218999975827],[214494.676398999989033,298026.298152],[214544.828646999987541,298028.794417999975849],[214622.364173,298035.829348],[214658.749137,298037.190948],[214744.227327,297999.898250999976881],[214739.159151,297968.430173999979161],[214729.325377,297958.218178000010084],[214656.025938,297909.881395999982487],[214690.444147,297836.506313],[214708.977029,297842.028355000016745],[214718.508226,297839.380801],[214743.546527,297797.927661],[214749.295503,297772.586781000019982],[214754.590612,297734.008129000023473],[214689.309481,297694.4461],[214646.721675,297765.476206000021193],[214637.871278,297781.815400000021327],[214627.961860000010347,297799.364905000024009],[214575.098621449375059,297902.520064931595698],[214547.09798,297895.962823999987449],[214481.136049,297886.582915999984834],[214419.334561,297875.00932000001194],[214386.126663,297978.188303],[214386.504885,297978.112658999976702],[214373.645334,298012.833446],[214470.318898,298025.23913]]]]}},
{"type":"Feature","properties":{"ID":12,"N° dossie":"36187/2026","MOA":"Groupe OCP S.A","MOE":"Anba Youssef","Consistanc":"Réalisation d'un lotissement \"Opération Phosphore El Fath 3\"","Référenc":"TF 59499/08; TF 62414/08; TF 115533/08; TF 115534/08; TF 116138/08; TF 116889/08; TF 117884/08; TF 126167/08; TF 208601/08; TF 209095/08; TF 230839/08; TF 230840/08","Situation":"Angle avenue \"Jabrane Khalil Jabrane\" et l'avenue \"R\"","Date de co":"En cours d'instruction","Surface te":"199386 m²","Surface ce":"62433.69 m²","Contributi":"37799.89 m²","Espaces ve":"Espaces verts : 15 896,84 m²; Parking : 2412,48 m²; Places : 855.04 m²","Equipement":"Gare routière extension : 436,18 m²; Administration de proximité : 994,81m²; Administration : 1 948,70 m²; Collège : 6384.75 m²; Lycée : 8871,09 m²","X":210000,"Y":296000,"Fiche Tech":"Fiche_Technique/12.pdf","Plan Masse":"Plan_Masse/12.pdf"},"geometry":{"type":"MultiPolygon","coordinates":[[[[210489.44,295703.419999999983702],[210478.88,295704.419999999983702],[210445.10999999998603,295699.960000000020955],[210479.0,295866.64000000001397],[210486.72,295917.090000000025611],[210521.079999999987194,295910.349999999976717],[210489.44,295703.419999999983702]]],[[[210195.200000000011642,295948.830000000016298],[210228.4,295940.659999999974389],[210256.94,295928.289999999979045],[210340.68,295924.840000000025611],[210431.16,295911.0],[210463.68,295909.38],[210443.78,295805.89000000001397],[210398.230000000010477,295812.229999999981374],[210307.13,295824.669999999983702],[210195.06,295840.32],[210165.24,295846.159999999974389],[210131.19,295854.31],[210131.64000000001397,295856.400000000023283],[210114.079999999987194,295863.60999999998603],[210133.75,295918.599999999976717],[210142.85999999998603,295937.770000000018626],[210154.04,295956.349999999976717],[210185.29,296009.63],[210219.76,296046.63],[210279.93,296114.82],[210334.829999999987194,296099.49],[210371.980000000010477,296093.789999999979045],[210419.79,296086.950000000011642],[210463.38,296081.5],[210480.670000000012806,296010.080000000016298],[210470.96,295973.409999999974389],[210470.76,295944.25],[210446.049999999988358,295945.409999999974389],[210348.07,295958.900000000023283],[210298.21,295965.049999999988358],[210267.66,295968.349999999976717],[210207.53,295981.68],[210195.200000000011642,295948.830000000016298]]],[[[210003.21,296140.96999999997206],[210024.54,296173.64000000001397],[210036.019999999989523,296184.75],[210042.450000000011642,296190.96999999997206],[210070.47,296213.88],[210106.170000000012806,296241.979999999981374],[210139.31,296272.409999999974389],[210086.89000000001397,296324.24],[210058.37,296296.710000000020955],[210040.93,296314.409999999974389],[210026.89000000001397,296330.650000000023283],[210010.88,296357.090000000025611],[210043.57,296386.580000000016298],[210062.920000000012806,296403.919999999983702],[210126.59,296391.210000000020955],[210143.64000000001397,296377.099999999976717],[210151.230000000010477,296386.580000000016298],[210230.09,296370.53000000002794],[210245.87,296340.349999999976717],[210184.549999999988358,296312.460000000020955],[210177.59,296304.96999999997206],[210160.62,296286.900000000023283],[210212.200000000011642,296264.729999999981374],[210296.99,296240.849999999976717],[210291.549999999988358,296205.270000000018626],[210268.88,296210.76],[210261.15,296181.74],[210242.74,296152.03000000002794],[210217.420000000012806,296124.51],[210179.72,296073.85999999998603],[210181.769999999989523,296112.82],[210099.920000000012806,296152.200000000011642],[210084.54,296056.07],[210127.38,296035.88],[210145.59,296028.650000000023283],[210126.51,296004.580000000016298],[210112.0,295983.43],[210098.75,295961.46999999997206],[210088.0,295938.81],[210081.06,295918.450000000011642],[210080.769999999989523,295918.24],[210068.94,295881.71999999997206],[209997.579999999987194,295895.68],[209915.19,295916.39000000001397],[209841.549999999988358,295928.580000000016298],[209777.16,295938.94],[209761.07,295946.770000000018626],[209781.079999999987194,295956.89000000001397],[209796.079999999987194,295968.24],[209800.200000000011642,296058.900000000023283],[209797.769999999989523,296061.07],[209801.34,296088.909999999974389],[209823.85,296069.659999999974389],[209848.07,296101.56],[209808.700000000011642,296122.5],[209817.25,296159.07],[209836.4,296205.669999999983702],[209827.69,296212.080000000016298],[209832.32,296226.299999999988358],[209867.57,296196.43],[209875.09,296205.020000000018626],[209932.25,296147.840000000025611],[209982.85,296096.63],[210003.21,296140.96999999997206]]],[[[210058.358348,296296.688585],[210086.876292,296324.223153],[210139.297873,296272.406727999972645],[210106.165618,296241.997672999976203],[210058.358348,296296.688585]]],[[[210542.22,296026.169999999983702],[210494.85,296037.580000000016298],[210478.27892439297284,296109.163630134949926],[210507.74,296119.479999999981374],[210533.4,296039.25],[210542.22,296026.169999999983702]]],[[[210478.24,296109.150000000023283],[210478.266712386714062,296109.216383484192193],[210478.27892439297284,296109.163630134949926],[210478.24,296109.150000000023283]]]]}},
{"type":"Feature","properties":{"ID":3,"N° dossie":"21115/2026","MOA":"Sté Vive Bâtiment S.A.R.L.A.U","MOE":"Belarbi Anass","Consistanc":"Lotissement Antalya en R+3","Référenc":"TF 251792/08; TF 64698/08; TF 232155/08; TF 64696/08; TF 67801/08; TF 270661/08","Situation":"Pté dite  \" Ard Hyoute Louaouche \"& \"Hait Haj Mohamed \"& \"Ard El Matar\" &\"Bled M \"","Date de co":"10/03/2026","Surface te":"1 4184 m²","Surface ce":"8106.86 m²","Contributi":"816.18 m²","Espaces ve":"_","Equipement":"Equipement 1 : 337.8 m²; Equipement 2 : 478.38 m²","X":208130,"Y":296710,"Fiche Tech":"Fiche_Technique/3.pdf","Plan Masse":"Plan_Masse/3.pdf"},"geometry":{"type":"MultiPolygon","coordinates":[[[[208100.15,296761.93],[208113.269999999989523,296733.12],[208114.700000000011642,296733.32],[208116.230000000010477,296719.200000000011642],[208144.54,296669.78000000002794],[208087.49,296615.020000000018626],[208061.299999999988358,296590.01],[208041.78,296616.789999999979045],[208029.88,296641.87],[208012.97,296667.299999999988358],[208014.69,296669.159999999974389],[208009.420000000012806,296680.919999999983702],[208023.049999999988358,296692.409999999974389],[208032.01,296704.710000000020955],[208014.22,296722.460000000020955],[208021.730000000010477,296730.650000000023283],[208031.39000000001397,296729.700000000011642],[208035.549999999988358,296724.150000000023283],[208046.91,296718.44],[208049.75,296718.87],[208054.46,296716.64000000001397],[208100.15,296761.93]]]]}},
{"type":"Feature","properties":{"ID":6,"N° dossie":"125807/2025","MOA":"Sté Soukkania développement S.A.R.L","MOE":"Belarbi Anass","Consistanc":"Lotissement en R+2","Référenc":"TF 33140/J","Situation":"Rue n°34","Date de co":"27/01/2026","Surface te":"37214 m²","Surface ce":"16823.99 m²","Contributi":"1666.19 m²","Espaces ve":"Mosquée : 242.24 m²; Espace verts : 373.08 m²","Equipement":"Equipement1 : 656.59 m²; Equipement2 : 394.28 m²","X":210590,"Y":295900,"Fiche Tech":"Fiche_Technique/6.pdf","Plan Masse":"Plan_Masse/6.pdf"},"geometry":{"type":"MultiPolygon","coordinates":[[[[210501.029469,296010.903983000025619],[210494.853119021950988,296037.579248722002376],[210542.22,296026.169999999983702],[210579.321439,295971.266309000027832],[210645.207724999985658,295875.8787],[210672.515359000011813,295832.307517],[210677.961757000011858,295818.994100000010803],[210693.014996000012616,295780.491091999982018],[210712.153033,295742.895817000011448],[210694.074018000013893,295734.650575999985449],[210668.884427000011783,295726.783556999987923],[210658.899365,295769.976518000010401],[210645.964169000013499,295790.62744399998337],[210585.221704,295750.460259000014048],[210575.766152,295749.2499480000115],[210536.884922,295722.774403000017628],[210492.935516,295703.182498999987729],[210489.455183997983113,295703.51930545840878],[210521.079999999987194,295910.349999999976717],[210486.72,295917.090000000025611],[210501.029469,296010.903983000025619]]]]}}
]
}
